STARLINK-31589          
1 59654U 24084A   26068.94159758  .00001085  00000+0  48923-4 0  9990
2 59654  42.9979  40.2098 0000529 106.1445 253.9465 15.27575395104436
HERMES-3                
1 63835U 25052BR  26068.93751242  .00020316  00000+0  69958-3 0  9995
2 63835  97.3987 324.6131 0007993 112.9583 247.2502 15.30039785 54863
